NORAD_CAT_ID,OBJECT_NAME,OBJECT_TYPE,EPOCH,MEAN_MOTION,ECCENTRICITY,INCLINATION,RA_OF_ASC_NODE,ARG_OF_PERICENTER,MEAN_ANOMALY,BSTAR,MEAN_MOTION_DOT,MEAN_MOTION_DDOT,TLE_LINE0,TLE_LINE1,TLE_LINE2,SEMIMAJOR_AXIS,PERIOD,APOGEE,PERIGEE,DECAYED
53435.0,STARLINK-4542,PAYLOAD,2023-06-11 01:26:51,15.08843308,7.34e-05,53.2155,284.8938,85.582,274.5256,1.4644e-05,-5.5e-07,0.0,0 STARLINK-4542,1 53435U 22097AZ  23162.06031744 -.00000055  00000-0  14644-4 0  9993,2 53435  53.2155 284.8938 0000734  85.5820 274.5256 15.08843308 46941,6917.87,95.437,540.243,539.228,0.0
53435.0,STARLINK-4542,PAYLOAD,2023-06-11 14:09:57,15.08835885,3.15e-05,53.2173,282.5162,87.9104,272.1924,2.1156e-05,4.9e-07,0.0,0 STARLINK-4542,1 53435U 22097AZ  23162.59024318  .00000049  00000-0  21156-4 0  9998,2 53435  53.2173 282.5162 0000315  87.9104 272.1924 15.08835885 47488,6917.893,95.438,539.976,539.54,0.0
53435.0,STARLINK-4542,PAYLOAD,2023-06-11 17:20:42,15.08844967,0.0001,53.2175,281.9241,93.7766,266.3341,0.00015831,2.233e-05,0.0,0 STARLINK-4542,1 53435U 22097AZ  23162.72271458  .00002233  00000-0  15831-3 0  9991,2 53435  53.2175 281.9241 0001000  93.7766 266.3341 15.08844967 47504,6917.865,95.437,540.422,539.038,0.0
53435.0,STARLINK-4542,PAYLOAD,2023-06-12 14:00:43,15.08839631,0.0001117,53.2169,278.0586,78.1702,281.9415,6.9649e-05,8.21e-06,0.0,0 STARLINK-4542,1 53435U 22097AZ  23163.58384007  .00000821  00000-0  69649-4 0  9999,2 53435  53.2169 278.0586 0001117  78.1702 281.9415 15.08839631 47633,6917.882,95.438,540.519,538.974,0.0
53435.0,STARLINK-4542,PAYLOAD,2023-06-13 10:40:44,15.08835925,0.0001155,53.2167,274.1923,85.0635,275.0489,8.5362e-06,-1.52e-06,0.0,0 STARLINK-4542,1 53435U 22097AZ  23164.44496339 -.00000152  00000-0  85362-5 0  9996,2 53435  53.2167 274.1923 0001155  85.0635 275.0489 15.08835925 47768,6917.893,95.438,540.557,538.959,0.0
53435.0,STARLINK-4542,PAYLOAD,2023-06-14 07:20:45,15.08838608,0.0001136,53.2162,270.3254,96.6102,263.5019,5.1912e-05,5.38e-06,0.0,0 STARLINK-4542,1 53435U 22097AZ  23165.30607960  .00000538  00000-0  51912-4 0  9996,2 53435  53.2162 270.3254 0001136  96.6102 263.5019 15.08838608 47890,6917.885,95.438,540.536,538.964,0.0
53435.0,STARLINK-4542,PAYLOAD,2023-06-15 10:22:18,15.08835468,0.0001146,53.2162,265.2698,102.3092,257.8029,4.9263e-05,4.96e-06,0.0,0 STARLINK-4542,1 53435U 22097AZ  23166.43216299  .00000496  00000-0  49263-4 0  9991,2 53435  53.2162 265.2698 0001146 102.3092 257.8029 15.08835468 47606,6917.894,95.438,540.552,538.966,0.0
53435.0,STARLINK-4542,PAYLOAD,2023-06-15 13:33:05,15.08838812,0.0001081,53.2166,264.6752,94.0918,266.0197,3.8437e-05,3.24e-06,0.0,0 STARLINK-4542,1 53435U 22097AZ  23166.56464191  .00000324  00000-0  38437-4 0  9992,2 53435  53.2166 264.6752 0001081  94.0918 266.0197 15.08838812 48083,6917.884,95.438,540.497,539.001,0.0
53435.0,STARLINK-4542,PAYLOAD,2023-06-15 16:43:51,15.08839315,0.0001081,53.2165,264.0804,94.3426,265.7689,4.0297e-05,3.54e-06,0.0,0 STARLINK-4542,1 53435U 22097AZ  23166.69712157  .00000354  00000-0  40297-4 0  9994,2 53435  53.2165 264.0804 0001081  94.3426 265.7689 15.08839315 48105,6917.882,95.438,540.495,539.0,0.0
53435.0,STARLINK-4542,PAYLOAD,2023-06-16 10:13:05,15.08845797,0.0001317,53.2179,260.811,102.9073,257.2067,0.00011619,1.562e-05,0.0,0 STARLINK-4542,1 53435U 22097AZ  23167.42575565  .00001562  00000-0  11619-3 0  9993,2 53435  53.2179 260.8110 0001317 102.9073 257.2067 15.08845797 47757,6917.863,95.437,540.639,538.817,0.0
53435.0,STARLINK-4542,PAYLOAD,2023-06-16 13:23:51,15.08852162,0.0001123,53.2167,260.2158,96.3989,263.7131,0.00017189,2.45e-05,0.0,0 STARLINK-4542,1 53435U 22097AZ  23167.55822965  .00002450  00000-0  17189-3 0  9991,2 53435  53.2167 260.2158 0001123  96.3989 263.7131 15.08852162 48239,6917.843,95.437,540.485,538.931,0.0
53435.0,STARLINK-4542,PAYLOAD,2023-06-16 14:59:14,15.08853388,0.0001157,53.2168,259.918,99.427,260.6853,0.00018591,2.673e-05,0.0,0 STARLINK-4542,1 53435U 22097AZ  23167.62446837  .00002673  00000-0  18591-3 0  9994,2 53435  53.2168 259.9180 0001157  99.4270 260.6853 15.08853388 47781,6917.839,95.437,540.505,538.904,0.0
53435.0,STARLINK-4542,PAYLOAD,2023-06-16 22:56:10,15.08842544,0.0001169,53.2175,258.4314,79.604,280.5084,8.5905e-05,1.08e-05,0.0,0 STARLINK-4542,1 53435U 22097AZ  23167.95567776  .00001080  00000-0  85905-4 0  9991,2 53435  53.2175 258.4314 0001169  79.6040 280.5084 15.08842544 47835,6917.873,95.437,540.546,538.929,0.0
53435.0,STARLINK-4542,PAYLOAD,2023-06-17 06:53:07,15.08837049,0.0002202,53.2162,256.9434,74.4239,285.6996,3.3712e-05,2.48e-06,0.0,0 STARLINK-4542,1 53435U 22097AZ  23168.28688722  .00000248  00000-0  33712-4 0  9997,2 53435  53.2162 256.9434 0002202  74.4239 285.6996 15.08837049 47886,6917.889,95.438,541.278,538.231,0.0
53435.0,STARLINK-4542,PAYLOAD,2023-06-17 13:14:40,15.08823657,0.00012,53.2169,255.7552,78.8552,281.2575,-5.7325e-05,-1.2e-05,0.0,0 STARLINK-4542,1 53435U 22097AZ  23168.55185872 -.00001200  00000-0 -57325-4 0  9992,2 53435  53.2169 255.7552 0001200  78.8552 281.2575 15.08823657 47924,6917.93,95.439,540.625,538.965,0.0
53435.0,STARLINK-4542,PAYLOAD,2023-06-17 22:46:59,15.08831515,0.0001205,53.2169,253.9709,78.7507,281.3621,1.7232e-05,-1.4e-07,0.0,0 STARLINK-4542,1 53435U 22097AZ  23168.94929496 -.00000014  00000-0  17232-4 0  9997,2 53435  53.2169 253.9709 0001205  78.7507 281.3621 15.08831515 47983,6917.906,95.438,540.605,538.938,0.0
53435.0,STARLINK-4542,PAYLOAD,2023-06-18 14:40:49,15.08842946,0.0001171,53.2157,250.9975,75.4487,284.6635,6.6124e-05,7.65e-06,0.0,0 STARLINK-4542,1 53435U 22097AZ  23169.61168673  .00000765  00000-0  66124-4 0  9990,2 53435  53.2157 250.9975 0001171  75.4487 284.6635 15.08842946 48088,6917.871,95.437,540.546,538.926,0.0
53435.0,STARLINK-4542,PAYLOAD,2023-06-19 08:10:04,15.08839679,0.0001183,53.2154,247.7265,68.4723,291.6396,0.00038588,5.859e-05,0.0,0 STARLINK-4542,1 53435U 22097AZ  23170.34033220  .00005859  00000-0  38588-3 0  9992,2 53435  53.2154 247.7265 0001183  68.4723 291.6396 15.08839679 48192,6917.881,95.438,540.565,538.928,0.0
53435.0,STARLINK-4542,PAYLOAD,2023-06-20 08:00:51,15.08837008,0.0001215,53.2146,243.2665,67.9845,292.1276,4.5386e-06,-2.16e-06,0.0,0 STARLINK-4542,1 53435U 22097AZ  23171.33393138 -.00000216  00000-0  45386-5 0  9998,2 53435  53.2146 243.2665 0001215  67.9845 292.1276 15.08837008 48347,6917.89,95.438,540.595,538.914,0.0
53435.0,STARLINK-4542,PAYLOAD,2023-06-20 11:11:37,15.0884167,0.0001105,53.2151,242.6703,76.991,283.1205,6.0668e-05,6.78e-06,0.0,0 STARLINK-4542,1 53435U 22097AZ  23171.46640959  .00000678  00000-0  60668-4 0  9998,2 53435  53.2151 242.6703 0001105  76.9910 283.1205 15.08841670 48825,6917.875,95.437,540.505,538.976,0.0
53435.0,STARLINK-4542,PAYLOAD,2023-06-20 22:19:19,15.08844528,0.0001069,53.215,240.5887,79.6746,280.4367,8.2894e-05,1.032e-05,0.0,0 STARLINK-4542,1 53435U 22097AZ  23171.93008735  .00001032  00000-0  82894-4 0  9990,2 53435  53.2150 240.5887 0001069  79.6746 280.4367 15.08844528 48431,6917.867,95.437,540.471,538.992,0.0
53435.0,STARLINK-4542,PAYLOAD,2023-06-21 11:02:24,15.08846527,0.0001081,53.2151,238.2103,80.9898,279.1217,9.5828e-05,1.238e-05,0.0,0 STARLINK-4542,1 53435U 22097AZ  23172.46000574  .00001238  00000-0  95828-4 0  9991,2 53435  53.2151 238.2103 0001081  80.9898 279.1217 15.08846527 48973,6917.86,95.437,540.473,538.978,0.0
53435.0,STARLINK-4542,PAYLOAD,2023-06-21 23:45:29,15.08837998,0.0001117,53.2144,235.8315,82.99,277.1219,0.00012849,1.758e-05,0.0,0 STARLINK-4542,1 53435U 22097AZ  23172.98992996  .00001758  00000-0  12849-3 0  9994,2 53435  53.2144 235.8315 0001117  82.9900 277.1219 15.08837998 48599,6917.887,95.438,540.524,538.979,0.0
53435.0,STARLINK-4542,PAYLOAD,2023-06-23 10:43:58,15.08843112,0.0001066,53.2156,229.2892,83.9093,276.2021,8.3265e-05,1.038e-05,0.0,0 STARLINK-4542,1 53435U 22097AZ  23174.44720801  .00001038  00000-0  83265-4 0  9993,2 53435  53.2156 229.2892 0001066  83.9093 276.2021 15.08843112 48817,6917.871,95.437,540.473,538.998,0.0
53435.0,STARLINK-4542,PAYLOAD,2023-06-23 23:27:04,15.08831058,0.0001028,53.2157,226.9111,82.1509,277.96,8.1658e-05,1.012e-05,0.0,0 STARLINK-4542,1 53435U 22097AZ  23174.97713638  .00001012  00000-0  81658-4 0  9997,2 53435  53.2157 226.9111 0001028  82.1509 277.9600 15.08831058 48892,6917.908,95.438,540.484,539.062,0.0
53435.0,STARLINK-4542,PAYLOAD,2023-06-25 08:50:10,15.08841082,0.000113,53.2157,220.6672,90.9461,269.166,8.2065e-05,1.019e-05,0.0,0 STARLINK-4542,1 53435U 22097AZ  23176.36817412  .00001019  00000-0  82065-4 0  9997,2 53435  53.2157 220.6672 0001130  90.9461 269.1660 15.08841082 49105,6917.877,95.437,540.524,538.96,0.0
53435.0,STARLINK-4542,PAYLOAD,2023-06-26 10:16:20,15.08844032,0.0001163,53.2157,215.909,97.0286,263.0838,0.00012531,1.707e-05,0.0,0 STARLINK-4542,1 53435U 22097AZ  23177.42801118  .00001707  00000-0  12531-3 0  9995,2 53435  53.2157 215.9090 0001163  97.0286 263.0838 15.08844032 49260,6917.868,95.437,540.538,538.929,0.0
53435.0,STARLINK-4542,PAYLOAD,2023-06-27 02:10:12,15.08835815,0.0001243,53.2152,212.9352,87.0059,273.1075,2.2526e-05,7.1e-07,0.0,0 STARLINK-4542,1 53435U 22097AZ  23178.09041977  .00000071  00000-0  22526-4 0  9997,2 53435  53.2152 212.9352 0001243  87.0059 273.1075 15.08835815 49364,6917.893,95.438,540.618,538.898,0.0
53435.0,STARLINK-4542,PAYLOAD,2023-06-28 08:22:31,15.08841732,0.0001231,53.2151,207.2842,84.2075,275.9058,3.3803e-05,2.5e-06,0.0,0 STARLINK-4542,1 53435U 22097AZ  23179.34897716  .00000250  00000-0  33803-4 0  9995,2 53435  53.2151 207.2842 0001231  84.2075 275.9058 15.08841732 49555,6917.875,95.437,540.592,538.889,0.0
53435.0,STARLINK-4542,PAYLOAD,2023-06-29 11:24:04,15.08841263,0.0001227,53.2153,202.2279,85.4803,274.6329,0.00011495,1.542e-05,0.0,0 STARLINK-4542,1 53435U 22097AZ  23180.47505527  .00001542  00000-0  11495-3 0  9994,2 53435  53.2153 202.2279 0001227  85.4803 274.6329 15.08841263 49728,6917.877,95.437,540.59,538.893,0.0
